44P/Reinmuth,e,5.8968,286.4616,58.1989,3.690989,0.1389921,0.42618656,129.9942,10/14.0/2017,2000,g  8.3,6.0
# From MPC103849
45P/Honda-Mrkos-Pajdusakova,e,4.2495,88.8908,326.4025,3.026673,0.1871785,0.82395313,53.6614,10/14.0/2017,2000,g 13.5,8.0
# From MPC 88330
46P/Wirtanen,e,11.7460,82.1693,356.3405,3.089762,0.1814749,0.65848782,282.8759,10/14.0/2017,2000,g  9.0,6.0
# From NK 2718
47P/Ashbrook-Jackson,e,13.0298,356.9739,357.6612,4.126983,0.1175588,0.31712867,14.7959,10/14.0/2017,2000,g  1.0,11.2
# From MPC 94675
48P/Johnson,e,12.2038,110.1472,216.4901,3.500400,0.1504969,0.42722040,314.5432,10/14.0/2017,2000,g 10.0,6.0
# From MPC 94675
49P/Arend-Rigaux,e,19.0437,118.8298,332.8944,3.568946,0.1461821,0.59948132,319.8724,10/14.0/2017,2000,g 11.3,4.4
# From MPC 95735
50P/Arend,e,19.1272,355.1818,49.3422,4.088081,0.1192408,0.52977661,73.1938,10/14.0/2017,2000,g  9.5,6.0
# From NK 3014
51P-A/Harrington,e,5.4245,83.6902,269.2480,3.712095,0.1378083,0.54213356,109.3605,10/14.0/2017,2000,g 10.0,8.0
# From NK 3013
51P-D/Harrington,e,5.4252,83.6750,269.2868,3.711082,0.1378647,0.54206886,109.5549,10/14.0/2017,2000,g 16.0,8.0
# From MPC 88330
52P/Harrington-Abell,e,10.2320,336.8327,139.6674,3.860083,0.1299598,0.53967475,171.1784,10/14.0/2017,2000,g 13.5,6.0
# From MPC 10028
53P/Van Biesbroeck,e,6.6075,148.9165,134.2187,5.417618,0.0781612,0.55201512,41.5782,10/14.0/2017,2000,g  7.7,4.8
# From NK 2713
54P/de Vico-Swift-NEAT,e,6.0569,358.8516,1.8456,3.797066,0.1332085,0.42463203,24.1896,10/14.0/2017,2000,g 10.0,6.0
# From MPC 31070
55P/Tempel-Tuttle,e,162.3380,235.4055,172.6124,10.33750,0.0296538,0.90692815,212.5495,10/14.0/2017,2000,g 10.0,10.0
# From MPC101100
56P/Slaughter-Burnham,e,8.1482,345.9783,44.1925,5.080900,0.0860584,0.50632059,38.9583,10/14.0/2017,2000,g  8.5,6.0
# From MPC 98565
57P/du Toit-Neujmin-Delporte,e,2.8486,188.8104,115.1373,3.450435,0.1537777,0.49964523,134.6509,10/14.0/2017,2000,g 12.5,6.0
# From MPC 65938
58P/Jackson-Neujmin,e,13.2158,159.7587,200.2508,4.063971,0.1203035,0.66552361,245.3027,10/14.0/2017,2000,g 15.5,6.0
# From MPC106348
59P/Kearns-Kwee,e,9.3398,312.8393,127.7152,4.494847,0.1034265,0.47530795,325.0614,10/14.0/2017,2000,g  7.0,6.0
# From MPC 94675
60P/Tsuchinshan,e,3.6062,267.5954,216.5541,3.510694,0.1498355,0.53792086,296.5885,10/14.0/2017,2000,g 11.5,6.0
# From MPC 95213
61P/Shajn-Schaldach,e,6.0044,163.0199,221.9744,3.681633,0.1395222,0.42501534,103.6794,10/14.0/2017,2000,g  6.0,10.0
# From MPC106348
62P/Tsuchinshan,e,9.7081,90.2440,30.3522,3.437907,0.1546190,0.59748430,354.8784,10/14.0/2017,2000,g  8.0,10.0
# From MPC 84320
63P/Wild,e,19.7788,357.9814,169.1815,5.599088,0.0743923,0.65059695,122.5341,10/14.0/2017,2000,g 10.5,6.0
# From MPC 94675
64P/Swift-Gehrels,e,8.9479,300.0021,97.1421,4.455992,0.1047822,0.68728819,319.5656,10/14.0/2017,2000,g  8.5,12.0
# From MPC104795
65P/Gunn,e,9.1852,62.0197,213.5384,3.880026,0.1289591,0.24999445,359.6390,10/14.0/2017,2000,g  5.0,6.0
# From MPC 94675
66P/du Toit,e,18.6773,21.8966,257.2309,6.053522,0.0661747,0.78693402,345.6300,10/14.0/2017,2000,g 12.0,3.6
# From MPC 89011
67P/Churyumov-Gerasimenko,e,7.1043,49.9396,12.6087,3.451597,0.1537000,0.64678489,121.3953,10/14.0/2017,2000,g 11.0,4.0
# From MPC 75716
68P/Klemola,e,11.1592,175.2698,153.2555,4.932688,0.0899660,0.63873937,291.9839,10/14.0/2017,2000,g 10.0,4.0
# From MPC102100
69P/Taylor,e,22.0328,104.8426,343.6188,3.890372,0.1284451,0.41328725,293.1566,10/14.0/2017,2000,g  9.5,12.0
# From MPC 92276
70P/Kojima,e,6.5996,119.2693,1.9399,3.673657,0.1399768,0.45334919,152.5518,10/14.0/2017,2000,g 11.0,6.0
# From MPC104795
71P/Clark,e,9.4462,59.4481,208.9087,3.137064,0.1773859,0.49434881,18.7680,10/14.0/2017,2000,g  9.8,6.0
# From MPC 89011
72P/Denning-Fujikawa,e,10.9187,26.6954,346.7057,4.313008,0.1100357,0.81770852,131.6908,10/14.0/2017,2000,g 17.5,10.0
# From MPC106348
73P/Schwassmann-Wachmann,e,11.2371,69.6601,199.3937,3.092111,0.1812681,0.68559123,38.2750,10/14.0/2017,2000,g 11.5,6.0
# From MPC106348
73P-BT/Schwassmann-Wachmann,e,11.2392,69.6626,199.3752,3.093669,0.1811313,0.68579506,38.2470,10/14.0/2017,2000,g 11.5,6.0
# From MPC102956
74P/Smirnova-Chernykh,e,6.6539,77.0570,87.0984,4.156811,0.1162957,0.14922737,347.8489,10/14.0/2017,2000,g  5.0,6.0
# From MPC102100
76P/West-Kohoutek-Ikemura,e,30.4597,84.1299,0.0651,3.472761,0.1522972,0.53798790,246.9477,10/14.0/2017,2000,g  8.0,12.0
# From MPC 10028
77P/Longmore,e,24.3461,14.8036,196.7700,3.616679,0.1432977,0.35342713,74.2663,10/14.0/2017,2000,g  7.0,8.0
# From MPC102101
78P/Gehrels,e,6.2489,210.5497,192.6996,3.738513,0.1363502,0.46128089,286.9426,10/14.0/2017,2000,g  5.5,8.0
# From MPC 94675
79P/du Toit-Hartley,e,3.1471,280.5297,281.8277,2.944521,0.1950662,0.61923207,294.7834,10/14.0/2017,2000,g 16.0,4.0
# From MPC 89313
80P/Peters-Hartley,e,29.9368,259.8352,339.1860,4.023749,0.1221118,0.59945122,130.4835,10/14.0/2017,2000,g  9.0,8.0
# From MPC105241
81P/Wild,e,3.2389,136.1239,41.6934,3.448015,0.1539396,0.53816406,69.3873,10/14.0/2017,2000,g  7.0,6.0
# From MPC 75717
82P/Gehrels,e,1.1280,239.3044,227.1997,4.143140,0.1168718,0.12284464,329.8982,10/14.0/2017,2000,g  5.0,8.0
# From MPC105241
84P/Giclas,e,7.3172,110.4740,277.8195,3.601131,0.1442267,0.50842508,220.7697,10/14.0/2017,2000,g  9.5,8.0
# From MPC 79347
86P/Wild,e,15.4750,72.3835,179.2013,3.605564,0.1439608,0.37244786,133.0490,10/14.0/2017,2000,g 11.0,6.0
# From MPC105241
87P/Bus,e,2.6023,181.8826,24.8094,3.440619,0.1544362,0.38950019,215.1718,10/14.0/2017,2000,g  7.2,10.0
# From MPC105241
88P/Howell,e,4.3837,56.7009,235.8542,3.107258,0.1799443,0.56350052,165.8343,10/14.0/2017,2000,g 11.0,6.0
# From MPC 10028
89P/Russell,e,12.0766,41.4431,250.1678,3.752468,0.1355903,0.40824977,41.1178,10/14.0/2017,2000,g 11.5,6.0
# From MPC102101
90P/Gehrels,e,9.6350,13.2504,29.2586,6.067455,0.0659469,0.50968917,7.7004,10/14.0/2017,2000,g  8.5,6.0
# From MPC105241
91P/Russell,e,14.0893,247.8286,354.5807,3.895148,0.1282089,0.33033869,216.1723,10/14.0/2017,2000,g  7.5,6.0
# From MPC 88331
92P/Sanguin,e,19.4457,181.4524,163.7306,5.351675,0.0796103,0.65918807,76.2665,10/14.0/2017,2000,g 12.0,6.0
# From NK 2707
93P/Lovas,e,12.2046,339.6248,74.8998,4.388031,0.1072259,0.61253545,24.2927,10/14.0/2017,2000,g  9.5,6.0
# From MPC 84320
94P/Russell,e,6.1878,70.8634,92.6696,3.509446,0.1499154,0.36487896,52.7193,10/14.0/2017,2000,g  9.0,6.0
# From MPC 75717
95P/Chiron,e,6.9499,209.1998,339.6892,13.64912,0.0195455,0.38219426,154.3410,10/14.0/2017,2000,g  6.3,2.0
# From MPC106348
96P/Machholz,e,58.1377,94.2544,14.7929,3.035266,0.1863842,0.95916364,357.3980,10/14.0/2017,2000,g 13.0,4.8
# From MPC 77020
97P/Metcalf-Brewington,e,17.8575,185.1564,228.2001,4.799552,0.0937353,0.45721227,211.0081,10/14.0/2017,2000,g  5.5,6.0
# From MPC 83523
98P/Takamizawa,e,10.5530,114.7082,157.8158,3.803122,0.1328904,0.56155972,203.2959,10/14.0/2017,2000,g  9.0,8.0
# From MPC 75718
99P/Kowal,e,4.3389,28.1789,174.5245,6.124373,0.0650297,0.23106978,253.4941,10/14.0/2017,2000,g  4.5,6.0
# From MPC 84321
100P/Hartley,e,25.5896,37.7210,181.9214,3.428941,0.1552258,0.41341503,86.9057,10/14.0/2017,2000,g  9.0,8.0
# From MPC105241
101P/Chernykh,e,5.0510,116.1917,277.6846,5.795262,0.0706471,0.59488297,301.9430,10/14.0/2017,2000,g 10.0,4.8
# From MPC 86232
102P/Shoemaker,e,25.9376,339.6245,20.6822,3.805001,0.1327920,0.45885318,201.0698,10/14.0/2017,2000,g  6.5,8.0
# From NK 2714
103P/Hartley,e,13.5938,219.7232,181.3034,3.477272,0.1520009,0.69342994,26.8288,10/14.0/2017,2000,g  8.5,8.0
# From MPC 10028
104P/Kowal,e,10.3096,235.3355,200.6788,3.261886,0.1673019,0.64034381,94.3611,10/14.0/2017,2000,g 16.0,4.0
# From MPC 94676
105P/Singer Brewster,e,9.1766,192.4324,46.5282,3.466232,0.1527276,0.41023095,314.1094,10/14.0/2017,2000,g 11.5,6.0
# From MPC 92276
106P/Schuster,e,20.6166,49.8987,355.8216,3.729009,0.1368718,0.59668944,161.3421,10/14.0/2017,2000,g 14.0,4.8
# From MPC 94676
107P/Wilson-Harrington,e,2.7973,266.8217,95.3822,2.627619,0.2313985,0.63080857,308.7417,10/14.0/2017,2000,g 16.0,2.0
# From MPC 89313
108P/Ciffreo,e,13.5276,52.6517,358.1091,3.704729,0.1382195,0.55661647,149.8091,10/14.0/2017,2000,g  8.0,12.0
# From ICA 105, 420
109P/Swift-Tuttle,e,113.3142,139.5778,152.9883,26.08776,0.0073969,0.96374622,67.1788,10/14.0/2017,2000,g  4.5,6.0
# From MPC 91618
110P/Hartley,e,11.6932,287.5398,167.4317,3.605593,0.1439591,0.31593919,148.6152,10/14.0/2017,2000,g  1.0,12.0
# From MPC 75718
111P/Helin-Roman-Crockett,e,4.2279,89.7677,1.7639,4.139843,0.1170114,0.10529602,202.4903,10/14.0/2017,2000,g  5.0,8.0
# From MPC105241
112P/Urata-Niijima,e,24.2034,31.9073,21.3447,3.528894,0.1486778,0.58850196,233.9672,10/14.0/2017,2000,g 14.0,6.0
# From MPC 92984
113P/Spitaler,e,5.6461,13.9424,50.3142,3.677451,0.1397602,0.43727442,124.8626,10/14.0/2017,2000,g 13.5,4.0
# From MPC105241
114P/Wiseman-Skiff,e,18.2742,271.0632,172.8526,3.544774,0.1476799,0.55446116,238.5594,10/14.0/2017,2000,g 11.5,6.0
# From MPC105241
115P/Maury,e,11.6726,176.0435,121.0397,4.271668,0.1116369,0.51805703,246.0817,10/14.0/2017,2000,g 10.5,6.0
# From MPC106348
116P/Wild,e,3.6076,20.9911,173.3640,3.484883,0.1515032,0.37208478,97.1767,10/14.0/2017,2000,g  2.5,10.0
# From MPC 95735
117P/Helin-Roman-Alu,e,8.7014,58.8757,222.4942,4.092364,0.1190536,0.25467955,154.3944,10/14.0/2017,2000,g  2.5,8.0
# From MPC 95735
118P/Shoemaker-Levy,e,8.5018,151.6217,302.5412,3.468458,0.1525806,0.42937629,73.7582,10/14.0/2017,2000,g 12.0,4.0
# From MPC 84628
119P/Parker-Hartley,e,5.4497,240.7786,181.9813,4.224263,0.1135214,0.31331894,145.6246,10/14.0/2017,2000,g  3.5,8.0
# From MPC 80901
120P/Mueller,e,8.7785,3.4306,29.0717,4.056003,0.1206582,0.36164300,202.3471,10/14.0/2017,2000,g 12.0,4.0
# From MPC 10028
121P/Shoemaker-Holt,e,20.1599,94.1407,11.4255,4.592363,0.1001497,0.18318056,150.8142,10/14.0/2017,2000,g  6.5,8.0
# From MPC 75718
122P/de Vico,e,84.7455,79.5253,13.0469,17.65805,0.0132828,0.96252926,106.8143,10/14.0/2017,2000,g  7.5,5.2
# From MPC102101
